CALSPHERE 1             
1 00900U 64063C   13024.52088667  .00000351  00000-0  37964-3 0  9047
2 00900  90.1421 347.6579 0025486 250.3113 109.5293 13.71397986399946
CALSPHERE 2             
1 00902U 64063E   13022.84856529  .00000075  00000-0  10000-3 0  7719
2 00902  90.1397 350.1191 0019980  33.7023 326.5390 13.52536241195204
LCS 1                   
1 01361U 65034C   13020.90215728  .00000009  00000-0  10000-3 0  4212
2 01361  32.1435 279.9959 0005386  56.4815 303.6196  9.89283571725455
TEMPSAT 1               
1 01512U 65065E   13024.26215072  .00000067  00000-0  11703-3 0  8296
2 01512  89.7871 273.8383 0068293 304.1915 204.7815 13.33314758308125
CALSPHERE 4(A)          
1 01520U 65065H   13023.49108749  .00000060  00000-0  10000-3 0    37
2 01520  90.1480 104.8727 0068837 216.6838 142.9583 13.35479664309920
OPS 5712 (P/L 160)      
1 02826U 67053A   13024.58399339  .00001090  00000-0  35475-3 0  8130
2 02826  69.9337  13.8216 0003681 177.2643 182.8507 14.41386375356856
OPS 5712 (P/L 153)      
1 02874U 67053H   13023.48892634  .00000011  00000-0  46510-4 0  3081
2 02874  69.9748 154.5352 0005093  48.2487  16.5652 13.96061608324241
SURCAL 150B             
1 02909U 67053J   13024.85831501  .00002341  00000-0  61126-3 0   138
2 02909  69.9493 148.8950 0006886 256.6943 103.3413 14.50636243363708
RIGIDSPHERE 2 (LCS 4)   
1 05398U 71067E   13024.09631473  .00000293  00000-0  99865-4 0  6957
2 05398  87.6199 248.0220 0065180 168.3241 191.9492 14.32005206172952
